{"generatedAt":"2026-05-05T08:19:47.084492Z","satellites":[{"name":"STARLINK-37542","tle1":"1 68917U 26097Y   26124.75002315 -.02046330  12519-2 -39701-2 0  9995","tle2":"2 68917  97.2866 319.6828 0001474  97.2022 151.7099 16.00489868  1942"}]}