{
  "norad_id": 68917,
  "name": "STARLINK-37542",
  "history": [
    {
      "epoch": "2026-05-04T18:00:02.000160Z",
      "apogee_km": 274.04157005863544,
      "perigee_km": 272.080796834156,
      "latitude_deg": -67.92490768133028,
      "longitude_deg": -11.231010792724463,
      "height_km": 299.5668567262724,
      "semi_major_axis_km": 6651.198183446396,
      "eccentricity": 0.0001474,
      "inclination_deg": 97.2866,
      "raan_deg": 319.6828,
      "arg_perigee_deg": 97.2022,
      "mean_anomaly_deg": 151.7099,
      "mean_motion_rev_day": 16.00489868
    }
  ]
}